{"type":"FeatureCollection","name":"Territorial changes: Settlements 2011 to Settlements 2015","metadata":{"fromMapId":"roi-settlements-2011","toMapId":"roi-settlements-ungeneralised","fromSource":"data/maps/physical/ROI_Settlements_2011.fgb","toSource":"render/source-cache/vector-intake/roi-settlements-ungeneralised.fgb","fromSources":["data/maps/physical/ROI_Settlements_2011.fgb"],"toSources":["render/source-cache/vector-intake/roi-settlements-ungeneralised.fgb"],"minimumAreaM2":100,"coordinateDecimals":6,"transitionPieceRule":"all intersections at or above the minimum area threshold; mutual-primary and same-name continuity intersections are retained as transparent hit targets","transitionTypes":{"unchanged":"mutual-primary or same-name continuity overlap retained between adjacent layers","transfer":"non-primary overlap where the earlier feature keeps a primary successor","split":"non-primary overlap where the earlier feature has multiple significant successors"},"chainId":"settlements","classId":"roi-settlements","discoverySource":"catalogue","runtimeOverlay":true,"runtimeCompacted":true,"sourceSidecar":"data/timeline-transitions/roi-settlements-2011__roi-settlements-ungeneralised.geojson","omittedTransitionTypes":["unchanged","retained"],"omittedVerboseProperties":["fromProperties","toProperties"],"sourceFeatureCount":830,"reason":"Browser runtime overlay contains only visible red/purple transition parts and compact properties. Large overlays are split into browser-safe shard files.","shardIndex":1,"runtimeFeatureCount":3},"features":[{"type":"Feature","geometry":{"type":"Polygon","coordinates":[[[-7.893119,53.079684],[-7.89295,53.079199],[-7.89295,53.079198],[-7.89295,53.079198],[-7.892838,53.078849],[-7.892812,53.078768],[-7.893167,53.078597],[-7.893188,53.07855],[-7.893096,53.078361],[-7.893009,53.078124],[-7.892942,53.077858],[-7.892789,53.077348],[-7.892656,53.076729],[-7.892487,53.075871],[-7.892319,53.075904],[-7.8923,53.075852],[-7.891218,53.076056],[-7.89005,53.076285],[-7.889587,53.075113],[-7.891855,53.074666],[-7.891296,53.073422],[-7.891392,53.07339],[-7.891391,53.073326],[-7.89135,53.07329],[-7.891187,53.072927],[-7.893034,53.07278],[-7.89346,53.07341],[-7.894002,53.074263],[-7.894191,53.074442],[-7.894573,53.075563],[-7.897537,53.075211],[-7.899518,53.074971],[-7.89897,53.073207],[-7.900661,53.072729],[-7.90349,53.072747],[-7.904099,53.072679],[-7.904216,53.073073],[-7.905966,53.073032],[-7.905981,53.073085],[-7.906255,53.074143],[-7.90671,53.0741],[-7.906805,53.074091],[-7.906822,53.074159],[-7.906819,53.074199],[-7.90683,53.07426],[-7.906919,53.074548],[-7.906959,53.074634],[-7.910824,53.07441],[-7.911319,53.074381],[-7.911582,53.074331],[-7.911583,53.074331],[-7.911752,53.07443],[-7.912126,53.074861],[-7.91199,53.075214],[-7.909437,53.075172],[-7.909487,53.075086],[-7.908726,53.075141],[-7.907416,53.075223],[-7.906531,53.075272],[-7.906686,53.075802],[-7.906686,53.075802],[-7.906684,53.075802],[-7.906834,53.076382],[-7.90575,53.076488],[-7.904719,53.076601],[-7.904664,53.076607],[-7.904664,53.076607],[-7.904591,53.076616],[-7.904852,53.077522],[-7.904852,53.077522],[-7.904852,53.077522],[-7.904218,53.077807],[-7.903782,53.07811],[-7.903675,53.078287],[-7.903674,53.078287],[-7.903204,53.07865],[-7.903198,53.078655],[-7.902891,53.078855],[-7.902541,53.079117],[-7.902492,53.07917],[-7.902475,53.079181],[-7.901629,53.079049],[-7.901607,53.079046],[-7.900756,53.078913],[-7.900744,53.07891],[-7.900548,53.07924],[-7.900352,53.079562],[-7.900172,53.079829],[-7.900118,53.080027],[-7.900099,53.08036],[-7.900099,53.080361],[-7.900095,53.080425],[-7.900105,53.080463],[-7.900105,53.080463],[-7.900105,53.080464],[-7.900169,53.080712],[-7.900181,53.080741],[-7.900303,53.081051],[-7.900334,53.081088],[-7.900342,53.081106],[-7.900632,53.081443],[-7.900635,53.081442],[-7.900756,53.081416],[-7.901199,53.081502],[-7.901202,53.081521],[-7.901513,53.081639],[-7.901515,53.081641],[-7.901693,53.081905],[-7.901694,53.081906],[-7.901694,53.081906],[-7.901722,53.082053],[-7.90172,53.082057],[-7.901677,53.082118],[-7.901674,53.082136],[-7.901641,53.082192],[-7.901451,53.082303],[-7.901452,53.082303],[-7.901372,53.082328],[-7.901242,53.082341],[-7.901183,53.082403],[-7.90119,53.082446],[-7.901197,53.082517],[-7.901197,53.082528],[-7.901227,53.082564],[-7.901232,53.082578],[-7.901327,53.082568],[-7.902137,53.082494],[-7.902242,53.08248],[-7.902919,53.082742],[-7.902706,53.083006],[-7.903644,53.083486],[-7.903554,53.083578],[-7.901369,53.084083],[-7.898924,53.082593],[-7.898676,53.082418],[-7.898261,53.082484],[-7.89774,53.082649],[-7.897332,53.082724],[-7.896713,53.082804],[-7.896015,53.082913],[-7.895582,53.08291],[-7.895352,53.082955],[-7.895337,53.082941],[-7.895354,53.08294],[-7.895225,53.082842],[-7.895009,53.082647],[-7.894948,53.082616],[-7.894825,53.082637],[-7.894813,53.082631],[-7.894785,53.082643],[-7.894784,53.082644],[-7.893244,53.082006],[-7.892821,53.081908],[-7.893023,53.079696],[-7.893119,53.079684]],[[-7.898789,53.082436],[-7.898986,53.08243],[-7.899007,53.082429],[-7.898896,53.082421],[-7.898789,53.082436]],[[-7.900095,53.082567],[-7.900101,53.082558],[-7.900031,53.082551],[-7.900095,53.082567]],[[-7.900724,53.082595],[-7.900832,53.082618],[-7.900914,53.082612],[-7.900988,53.082605],[-7.901057,53.082596],[-7.901059,53.082596],[-7.900909,53.082599],[-7.900724,53.082595]]]},"properties":{"transitionId":"roi-settlements-2011__roi-settlements-ungeneralised__124","transitionType":"split","transitionReason":"source-split-to-non-primary-target","fromMapId":"roi-settlements-2011","toMapId":"roi-settlements-ungeneralised","fromMapName":"Settlements 2011","toMapName":"Settlements 2015","fromFeatureId":"Settlements 2011-124","toFeatureId":"Settlements 2015-132","fromFeatureName":"35013","toFeatureName":"12028","name":"35013 to 12028","area_m2":795881.6381,"area_km2":0.795882,"fromFeatureAreaM2":9427856.138,"toFeatureAreaM2":823873.63325,"fromFeatureSharePct":8.441809,"toFeatureSharePct":96.602392}},{"type":"Feature","geometry":{"type":"Polygon","coordinates":[[[-6.071582,53.11568],[-6.071582,53.11568],[-6.071591,53.115736],[-6.071591,53.115736],[-6.071591,53.115736],[-6.071617,53.115813],[-6.071633,53.115863],[-6.071634,53.115863],[-6.071634,53.115863],[-6.071678,53.115972],[-6.071678,53.115972],[-6.071703,53.116057],[-6.071703,53.116058],[-6.072173,53.116049],[-6.072271,53.116054],[-6.072365,53.116056],[-6.072539,53.116054],[-6.072745,53.116036],[-6.072939,53.116043],[-6.073221,53.116043],[-6.073659,53.116056],[-6.073612,53.116288],[-6.073612,53.116288],[-6.073612,53.116288],[-6.074042,53.116623],[-6.074748,53.117188],[-6.074844,53.117269],[-6.074886,53.117304],[-6.074869,53.11733],[-6.074869,53.11733],[-6.074869,53.11733],[-6.075239,53.117509],[-6.075423,53.117565],[-6.075566,53.1176],[-6.075751,53.117645],[-6.076069,53.117701],[-6.076377,53.117753],[-6.076409,53.117991],[-6.076419,53.11815],[-6.076426,53.118226],[-6.076426,53.118227],[-6.07645,53.118376],[-6.07645,53.118377],[-6.076541,53.118437],[-6.076605,53.118497],[-6.076637,53.118536],[-6.076738,53.118583],[-6.076858,53.118621],[-6.076988,53.118632],[-6.077161,53.118653],[-6.077448,53.11871],[-6.077648,53.118747],[-6.078006,53.118821],[-6.078053,53.118839],[-6.077827,53.119098],[-6.077704,53.119268],[-6.077619,53.119384],[-6.077583,53.119438],[-6.077583,53.119438],[-6.077583,53.119438],[-6.077667,53.119453],[-6.077719,53.11948],[-6.078072,53.119818],[-6.078178,53.119925],[-6.078404,53.120171],[-6.078618,53.120391],[-6.079,53.120788],[-6.079081,53.120856],[-6.079111,53.120878],[-6.079139,53.120898],[-6.079169,53.12092],[-6.079143,53.120948],[-6.07911,53.120979],[-6.078995,53.120957],[-6.078896,53.120946],[-6.078739,53.120956],[-6.078553,53.120957],[-6.078415,53.120963],[-6.078266,53.120964],[-6.078177,53.120969],[-6.07816,53.120974],[-6.07789,53.121025],[-6.077774,53.121057],[-6.077743,53.121087],[-6.077705,53.121105],[-6.077591,53.121144],[-6.076914,53.12091],[-6.076696,53.120518],[-6.075152,53.120435],[-6.07501,53.120498],[-6.074868,53.120559],[-6.074534,53.120644],[-6.074472,53.120659],[-6.074113,53.120645],[-6.073753,53.12064],[-6.073613,53.120654],[-6.073603,53.120655],[-6.073569,53.120682],[-6.073363,53.120704],[-6.073244,53.120725],[-6.073086,53.120754],[-6.073038,53.120747],[-6.072977,53.120757],[-6.072941,53.120779],[-6.072754,53.120821],[-6.0726,53.12085],[-6.072377,53.120905],[-6.072196,53.12093],[-6.072124,53.120961],[-6.072119,53.121013],[-6.072121,53.121046],[-6.072136,53.121088],[-6.072319,53.121092],[-6.072543,53.121492],[-6.072331,53.121493],[-6.071889,53.121517],[-6.071657,53.121534],[-6.071564,53.121537],[-6.071489,53.121664],[-6.071465,53.121677],[-6.07143,53.121676],[-6.071364,53.121663],[-6.071245,53.121651],[-6.070996,53.121651],[-6.070675,53.121678],[-6.070343,53.121704],[-6.070055,53.121731],[-6.069805,53.121755],[-6.069703,53.121769],[-6.069606,53.121784],[-6.069387,53.121837],[-6.069197,53.121883],[-6.069054,53.121923],[-6.068951,53.121965],[-6.068775,53.12201],[-6.068603,53.122065],[-6.068456,53.122106],[-6.068366,53.122128],[-6.068297,53.122122],[-6.068211,53.122098],[-6.068115,53.122061],[-6.068052,53.122026],[-6.067997,53.121984],[-6.067992,53.121981],[-6.067993,53.12198],[-6.067937,53.121939],[-6.067902,53.121913],[-6.06783,53.121766],[-6.06783,53.121765],[-6.06777,53.121561],[-6.06777,53.121561],[-6.067703,53.121347],[-6.067703,53.121347],[-6.067658,53.121201],[-6.067658,53.121201],[-6.067625,53.121148],[-6.067573,53.121077],[-6.067573,53.121077],[-6.067497,53.12075],[-6.067497,53.120749],[-6.067405,53.120336],[-6.067405,53.120336],[-6.067405,53.120336],[-6.067383,53.120269],[-6.067382,53.120268],[-6.067382,53.120268],[-6.067381,53.120261],[-6.067365,53.120197],[-6.06734,53.120179],[-6.067305,53.120174],[-6.067296,53.120084],[-6.067296,53.120084],[-6.067296,53.120084],[-6.06723,53.120036],[-6.067143,53.119933],[-6.06711,53.119872],[-6.06711,53.119872],[-6.067078,53.119722],[-6.067078,53.119721],[-6.067046,53.119696],[-6.066863,53.119717],[-6.066434,53.119777],[-6.066382,53.119609],[-6.066382,53.119609],[-6.066361,53.119553],[-6.066258,53.119285],[-6.066258,53.119285],[-6.066122,53.1193],[-6.065908,53.119317],[-6.065819,53.119323],[-6.06578,53.119231],[-6.065779,53.119231],[-6.065749,53.11914],[-6.065737,53.119106],[-6.065737,53.119106],[-6.065737,53.119105],[-6.065706,53.119038],[-6.065706,53.119038],[-6.065666,53.118956],[-6.065666,53.118956],[-6.065656,53.11885],[-6.065652,53.118745],[-6.065674,53.118664],[-6.065701,53.118585],[-6.06571,53.118521],[-6.065729,53.118477],[-6.065728,53.118476],[-6.065719,53.118443],[-6.066912,53.11827],[-6.066912,53.11827],[-6.066912,53.11827],[-6.066715,53.117506],[-6.066258,53.11674],[-6.066518,53.116676],[-6.066632,53.116658],[-6.067189,53.116555],[-6.067232,53.116543],[-6.067241,53.116522],[-6.067276,53.116514],[-6.067321,53.116476],[-6.06732,53.116476],[-6.067321,53.116476],[-6.068126,53.116294],[-6.06881,53.116151],[-6.069472,53.116089],[-6.06989,53.11603],[-6.070678,53.115854],[-6.071553,53.115656],[-6.071541,53.115641],[-6.071582,53.11568]]]},"properties":{"transitionId":"roi-settlements-2011__roi-settlements-ungeneralised__260","transitionType":"split","transitionReason":"source-split-to-non-primary-target","fromMapId":"roi-settlements-2011","toMapId":"roi-settlements-ungeneralised","fromMapName":"Settlements 2011","toMapName":"Settlements 2015","fromFeatureId":"Settlements 2011-258","toFeatureId":"Settlements 2015-274","fromFeatureName":"15015","toFeatureName":"15006","name":"15015 to 15006","area_m2":379060.5888,"area_km2":0.379061,"fromFeatureAreaM2":2382268.7602,"toFeatureAreaM2":8906879.00765,"fromFeatureSharePct":15.911747,"toFeatureSharePct":4.255818}},{"type":"Feature","geometry":{"type":"Polygon","coordinates":[[[-8.273967,51.800517],[-8.27397,51.800503],[-8.27398,51.800489],[-8.274008,51.800471],[-8.274035,51.800464],[-8.274052,51.800457],[-8.274076,51.800437],[-8.2741,51.80042],[-8.274114,51.800405],[-8.274134,51.800395],[-8.274175,51.800381],[-8.274214,51.80037],[-8.274285,51.800354],[-8.274378,51.800331],[-8.274433,51.80031],[-8.274454,51.800302],[-8.274478,51.800288],[-8.274494,51.800276],[-8.274507,51.800253],[-8.274516,51.800236],[-8.274517,51.800221],[-8.274517,51.800201],[-8.274517,51.800201],[-8.274516,51.80019],[-8.274514,51.80018],[-8.274514,51.80018],[-8.27451,51.800161],[-8.274509,51.800153],[-8.274508,51.800144],[-8.274507,51.800144],[-8.274502,51.800123],[-8.274502,51.800123],[-8.274502,51.800123],[-8.274474,51.800087],[-8.274448,51.800053],[-8.274422,51.800021],[-8.274398,51.799991],[-8.274376,51.799974],[-8.274358,51.799957],[-8.274341,51.799939],[-8.274327,51.799922],[-8.274296,51.799901],[-8.274268,51.799878],[-8.274246,51.799858],[-8.274234,51.799838],[-8.274224,51.79981],[-8.274224,51.799809],[-8.274223,51.799809],[-8.274215,51.799779],[-8.274213,51.799737],[-8.274212,51.799736],[-8.274207,51.799706],[-8.274205,51.79966],[-8.274206,51.799624],[-8.274206,51.799624],[-8.274206,51.799624],[-8.274197,51.799602],[-8.27419,51.799582],[-8.27419,51.799582],[-8.274159,51.799545],[-8.274133,51.799509],[-8.274118,51.799486],[-8.274113,51.799469],[-8.274111,51.799465],[-8.274111,51.799465],[-8.274109,51.799458],[-8.274107,51.799454],[-8.274113,51.79944],[-8.274135,51.799429],[-8.274176,51.799417],[-8.274207,51.79941],[-8.274226,51.799408],[-8.274257,51.799409],[-8.274272,51.799409],[-8.274285,51.799405],[-8.274293,51.799401],[-8.274299,51.799394],[-8.274299,51.799394],[-8.274296,51.799384],[-8.274296,51.799384],[-8.274263,51.799368],[-8.274212,51.799353],[-8.274157,51.799331],[-8.274114,51.799317],[-8.274066,51.799299],[-8.274041,51.799284],[-8.274018,51.799267],[-8.273994,51.799244],[-8.273987,51.799223],[-8.273988,51.799198],[-8.273993,51.799176],[-8.273998,51.799161],[-8.274021,51.799136],[-8.274034,51.79912],[-8.274039,51.799106],[-8.274045,51.799091],[-8.27408,51.799076],[-8.27411,51.799068],[-8.274148,51.799058],[-8.274172,51.79905],[-8.274188,51.799036],[-8.274196,51.799012],[-8.274196,51.799012],[-8.274196,51.799011],[-8.274192,51.798993],[-8.27419,51.798983],[-8.27419,51.798983],[-8.27419,51.798982],[-8.274173,51.79894],[-8.274173,51.798939],[-8.274155,51.798896],[-8.274155,51.798896],[-8.274127,51.798851],[-8.274108,51.798814],[-8.274108,51.798813],[-8.274088,51.798779],[-8.274065,51.798741],[-8.274049,51.79871],[-8.274048,51.79871],[-8.274021,51.798673],[-8.273993,51.798643],[-8.273949,51.798609],[-8.273904,51.79858],[-8.273873,51.798563],[-8.27384,51.798536],[-8.273816,51.798512],[-8.273798,51.798479],[-8.273783,51.798451],[-8.273783,51.798451],[-8.273783,51.79843],[-8.273783,51.79843],[-8.273783,51.798429],[-8.273792,51.798365],[-8.273797,51.798324],[-8.273797,51.798299],[-8.273797,51.798286],[-8.273797,51.798286],[-8.273797,51.798286],[-8.273792,51.798274],[-8.273791,51.798274],[-8.273775,51.798241],[-8.273775,51.798241],[-8.273754,51.798207],[-8.273722,51.79817],[-8.273696,51.798134],[-8.273696,51.798134],[-8.273685,51.798115],[-8.273694,51.798094],[-8.27371,51.798071],[-8.273734,51.798046],[-8.273763,51.798025],[-8.273785,51.798008],[-8.273806,51.79797],[-8.273827,51.797937],[-8.273873,51.797887],[-8.273923,51.797848],[-8.273958,51.797817],[-8.273996,51.797796],[-8.274017,51.797784],[-8.274032,51.797759],[-8.274059,51.79773],[-8.274087,51.797711],[-8.2741,51.797701],[-8.274111,51.797688],[-8.274139,51.797674],[-8.274169,51.797664],[-8.274193,51.797663],[-8.274215,51.797673],[-8.274231,51.79769],[-8.274238,51.797706],[-8.274238,51.797706],[-8.274234,51.797737],[-8.274234,51.797738],[-8.27423,51.797761],[-8.274228,51.797785],[-8.274207,51.797807],[-8.274169,51.797831],[-8.274086,51.797872],[-8.274045,51.797891],[-8.274005,51.797914],[-8.27399,51.79793],[-8.27399,51.79793],[-8.27399,51.797931],[-8.27399,51.797944],[-8.27399,51.797944],[-8.27399,51.797944],[-8.274018,51.797946],[-8.274055,51.797952],[-8.274106,51.797955],[-8.274164,51.797955],[-8.274195,51.797952],[-8.274226,51.797948],[-8.274257,51.79794],[-8.274286,51.797937],[-8.274325,51.79792],[-8.274364,51.797901],[-8.274397,51.797861],[-8.274418,51.797838],[-8.274432,51.797812],[-8.274439,51.797791],[-8.274472,51.79776],[-8.274512,51.797734],[-8.274541,51.797716],[-8.274565,51.797707],[-8.274619,51.797669],[-8.274667,51.797629],[-8.274719,51.797583],[-8.274762,51.797548],[-8.274793,51.797526],[-8.274853,51.797492],[-8.274924,51.797449],[-8.27499,51.797393],[-8.275048,51.797351],[-8.275112,51.797312],[-8.275139,51.797299],[-8.275186,51.797282],[-8.275227,51.797255],[-8.275274,51.797224],[-8.275323,51.79719],[-8.275357,51.797168],[-8.275381,51.797153],[-8.275413,51.797142],[-8.275448,51.797129],[-8.275491,51.797119],[-8.275525,51.797108],[-8.275558,51.797095],[-8.275585,51.797084],[-8.275606,51.797075],[-8.275632,51.797048],[-8.275654,51.797021],[-8.275684,51.796996],[-8.275696,51.796982],[-8.275705,51.796971],[-8.275723,51.796962],[-8.275743,51.79695],[-8.275793,51.796907],[-8.275837,51.796867],[-8.275872,51.796838],[-8.275896,51.796805],[-8.275921,51.796771],[-8.275952,51.79674],[-8.275971,51.796714],[-8.276016,51.796672],[-8.276048,51.796646],[-8.276091,51.796612],[-8.276128,51.796586],[-8.276189,51.79655],[-8.276256,51.796502],[-8.276312,51.796464],[-8.276352,51.796434],[-8.27638,51.796403],[-8.276434,51.796373],[-8.276483,51.796342],[-8.276531,51.79631],[-8.276577,51.796285],[-8.276615,51.796273],[-8.27665,51.796256],[-8.276687,51.796225],[-8.276719,51.796195],[-8.276763,51.796157],[-8.2768,51.796118],[-8.276832,51.796085],[-8.276871,51.796055],[-8.276914,51.79603],[-8.276927,51.796023],[-8.276953,51.796008],[-8.276991,51.795984],[-8.277014,51.79596],[-8.277049,51.795932],[-8.277054,51.795929],[-8.277078,51.795904],[-8.277107,51.795887],[-8.277144,51.795877],[-8.27717,51.795871],[-8.277193,51.795871],[-8.277218,51.795875],[-8.277247,51.795886],[-8.277261,51.795901],[-8.277274,51.795916],[-8.277288,51.795928],[-8.277302,51.795932],[-8.277323,51.795936],[-8.27734,51.795937],[-8.277402,51.795925],[-8.277458,51.795917],[-8.277513,51.795911],[-8.277563,51.795904],[-8.277597,51.795898],[-8.27761,51.795896],[-8.277651,51.795882],[-8.277679,51.795865],[-8.277716,51.795841],[-8.277748,51.795814],[-8.277751,51.795808],[-8.277762,51.795786],[-8.277792,51.795746],[-8.277821,51.795701],[-8.277849,51.795663],[-8.277874,51.795631],[-8.277892,51.795608],[-8.277909,51.795588],[-8.277936,51.795572],[-8.277977,51.795552],[-8.278034,51.795526],[-8.278062,51.795519],[-8.278129,51.795499],[-8.278195,51.795482],[-8.278234,51.79547],[-8.278261,51.795462],[-8.278291,51.795455],[-8.278336,51.795443],[-8.278377,51.795439],[-8.27842,51.795434],[-8.278465,51.795431],[-8.278508,51.795428],[-8.278542,51.795423],[-8.27857,51.795425],[-8.27859,51.795426],[-8.278624,51.795435],[-8.278651,51.795441],[-8.278708,51.795466],[-8.278726,51.795475],[-8.278747,51.795494],[-8.278758,51.795509],[-8.278768,51.795523],[-8.278782,51.795539],[-8.278796,51.795545],[-8.278813,51.795554],[-8.278836,51.795556],[-8.27888,51.795557],[-8.278917,51.795561],[-8.278949,51.795567],[-8.278988,51.795574],[-8.279026,51.795576],[-8.279059,51.795579],[-8.279118,51.795578],[-8.27917,51.795572],[-8.279217,51.795565],[-8.279262,51.795553],[-8.279294,51.795545],[-8.279325,51.795532],[-8.279353,51.795518],[-8.279371,51.795504],[-8.279403,51.79549],[-8.279453,51.795465],[-8.279507,51.795429],[-8.279554,51.795409],[-8.279602,51.795372],[-8.279681,51.795325],[-8.279726,51.795294],[-8.279766,51.795267],[-8.279795,51.795254],[-8.279831,51.795235],[-8.279871,51.795227],[-8.279895,51.795227],[-8.279933,51.795229],[-8.279972,51.795236],[-8.279993,51.795246],[-8.28001,51.795251],[-8.280031,51.795253],[-8.280062,51.795245],[-8.280084,51.795231],[-8.280097,51.795186],[-8.280097,51.795159],[-8.280095,51.795138],[-8.280094,51.795129],[-8.280094,51.795129],[-8.280094,51.795129],[-8.280095,51.795097],[-8.280095,51.795097],[-8.280092,51.795088],[-8.280092,51.795088],[-8.280076,51.795078],[-8.280052,51.795066],[-8.280007,51.795037],[-8.279981,51.795018],[-8.27997,51.794998],[-8.279973,51.794986],[-8.279985,51.79497],[-8.280003,51.79497],[-8.280026,51.794972],[-8.280053,51.794976],[-8.280072,51.794977],[-8.280087,51.794976],[-8.280103,51.794974],[-8.280118,51.794963],[-8.280126,51.794937],[-8.280129,51.794859],[-8.280129,51.794831],[-8.280131,51.794779],[-8.280131,51.794779],[-8.280131,51.794778],[-8.280127,51.794756],[-8.280123,51.794725],[-8.28014,51.794667],[-8.280146,51.79463],[-8.280146,51.79463],[-8.280148,51.794596],[-8.280152,51.794544],[-8.280152,51.794543],[-8.280153,51.794526],[-8.280153,51.794525],[-8.280156,51.794482],[-8.280162,51.794455],[-8.280169,51.794422],[-8.280183,51.794373],[-8.280196,51.794338],[-8.2802,51.794306],[-8.280208,51.794288],[-8.280212,51.794269],[-8.280212,51.794269],[-8.280205,51.794249],[-8.280187,51.794221],[-8.280176,51.794195],[-8.280175,51.794195],[-8.280159,51.794167],[-8.280159,51.794166],[-8.280159,51.794166],[-8.280159,51.794166],[-8.280135,51.794137],[-8.280113,51.794112],[-8.280088,51.794089],[-8.280056,51.794068],[-8.28003,51.794059],[-8.28,51.794051],[-8.279977,51.794041],[-8.279973,51.794025],[-8.279973,51.794025],[-8.279967,51.794007],[-8.279972,51.793997],[-8.279994,51.793993],[-8.280018,51.793989],[-8.280049,51.793977],[-8.280067,51.793969],[-8.280084,51.79396],[-8.280102,51.793943],[-8.280115,51.793927],[-8.280127,51.79391],[-8.280149,51.793873],[-8.280171,51.793851],[-8.280182,51.793838],[-8.280203,51.79381],[-8.280217,51.793791],[-8.280225,51.793779],[-8.280243,51.79376],[-8.280255,51.793726],[-8.280262,51.793703],[-8.28027,51.793682],[-8.280276,51.793655],[-8.280284,51.793641],[-8.280287,51.793619],[-8.280286,51.793608],[-8.280285,51.793602],[-8.280285,51.793602],[-8.280267,51.793591],[-8.28024,51.793577],[-8.280189,51.793566],[-8.280129,51.793556],[-8.280085,51.79355],[-8.280051,51.793545],[-8.280016,51.793548],[-8.279971,51.793551],[-8.279947,51.793552],[-8.279921,51.793549],[-8.279909,51.793547],[-8.279898,51.793537],[-8.279904,51.793528],[-8.279942,51.793518],[-8.279995,51.793508],[-8.280027,51.793504],[-8.280085,51.793493],[-8.280122,51.793488],[-8.280182,51.793474],[-8.280219,51.793466],[-8.280269,51.793455],[-8.280286,51.793448],[-8.280307,51.793436],[-8.280322,51.793418],[-8.280326,51.7934],[-8.280325,51.7934],[-8.280322,51.793381],[-8.280321,51.793381],[-8.280321,51.793381],[-8.280306,51.79336],[-8.280275,51.793339],[-8.280247,51.79332],[-8.280208,51.793305],[-8.280181,51.793291],[-8.280133,51.793274],[-8.2801,51.793265],[-8.280064,51.793256],[-8.28001,51.793238],[-8.279947,51.793224],[-8.279907,51.793213],[-8.279852,51.793201],[-8.279773,51.793188],[-8.279713,51.793175],[-8.279675,51.793168],[-8.279651,51.79316],[-8.279634,51.793151],[-8.279616,51.793137],[-8.279601,51.793122],[-8.279594,51.793105],[-8.279594,51.793105],[-8.279594,51.793104],[-8.279588,51.793082],[-8.279587,51.793061],[-8.279586,51.793048],[-8.279586,51.793048],[-8.279586,51.793048],[-8.27958,51.793033],[-8.279566,51.793018],[-8.279555,51.793003],[-8.279541,51.79299],[-8.279536,51.79298],[-8.279536,51.79298],[-8.279545,51.792959],[-8.27956,51.792944],[-8.279589,51.792929],[-8.279617,51.792919],[-8.279636,51.792914],[-8.279663,51.792905],[-8.27969,51.792887],[-8.279709,51.792867],[-8.279713,51.792848],[-8.279713,51.792848],[-8.279713,51.792847],[-8.2797,51.792832],[-8.279674,51.79282],[-8.279627,51.792825],[-8.279537,51.792838],[-8.279449,51.792853],[-8.279383,51.79286],[-8.279281,51.792874],[-8.279265,51.792863],[-8.279262,51.792849],[-8.279272,51.79283],[-8.279291,51.792815],[-8.279302,51.792801],[-8.279304,51.792791],[-8.279304,51.792791],[-8.279304,51.79279],[-8.279278,51.792775],[-8.279198,51.79274],[-8.279125,51.792706],[-8.279057,51.792665],[-8.279018,51.792638],[-8.278996,51.792624],[-8.27898,51.792607],[-8.27898,51.792606],[-8.278978,51.792597],[-8.278972,51.792575],[-8.278972,51.792569],[-8.27897,51.792537],[-8.278971,51.792503],[-8.278972,51.792477],[-8.27898,51.792452],[-8.278984,51.792428],[-8.278992,51.792409],[-8.279025,51.79238],[-8.279052,51.792356],[-8.2791,51.792322],[-8.279166,51.792278],[-8.27997,51.792357],[-8.281459,51.792498],[-8.281902,51.792526],[-8.282007,51.792531],[-8.282007,51.792531],[-8.282007,51.792531],[-8.281993,51.792471],[-8.281988,51.792451],[-8.281988,51.792451],[-8.28196,51.792343],[-8.282015,51.792344],[-8.282264,51.792323],[-8.282878,51.792274],[-8.282935,51.792534],[-8.282935,51.792535],[-8.282945,51.792586],[-8.282945,51.792586],[-8.283583,51.792619],[-8.283735,51.793081],[-8.284212,51.794042],[-8.284212,51.794043],[-8.284431,51.794491],[-8.284431,51.794491],[-8.284203,51.794862],[-8.283975,51.795298],[-8.283809,51.795716],[-8.283642,51.79593],[-8.283503,51.796208],[-8.283503,51.796209],[-8.283521,51.796296],[-8.283552,51.796443],[-8.28368,51.796825],[-8.283701,51.79711],[-8.283692,51.79765],[-8.283724,51.797988],[-8.283678,51.798042],[-8.28329,51.798083],[-8.282688,51.798182],[-8.282119,51.798386],[-8.281786,51.798528],[-8.281507,51.798604],[-8.281254,51.798639],[-8.280791,51.7987],[-8.280705,51.798563],[-8.280492,51.798432],[-8.280114,51.798296],[-8.279732,51.798267],[-8.279507,51.798281],[-8.27947,51.798903],[-8.27947,51.798903],[-8.279565,51.799453],[-8.279565,51.799453],[-8.279565,51.799453],[-8.279818,51.800024],[-8.279819,51.800028],[-8.279218,51.800237],[-8.279094,51.80024],[-8.278798,51.800355],[-8.278608,51.800452],[-8.278434,51.800507],[-8.278308,51.800521],[-8.278115,51.800417],[-8.277933,51.800389],[-8.277756,51.800351],[-8.27749,51.800577],[-8.277134,51.800619],[-8.276624,51.800676],[-8.27609,51.800727],[-8.276457,51.801423],[-8.276621,51.801653],[-8.276886,51.801933],[-8.276801,51.801958],[-8.277336,51.802446],[-8.277413,51.802598],[-8.276949,51.802623],[-8.276283,51.802703],[-8.275915,51.802761],[-8.275914,51.80276],[-8.275761,51.802558],[-8.275677,51.802483],[-8.275585,51.802393],[-8.275532,51.802319],[-8.275494,51.802229],[-8.275479,51.802177],[-8.275476,51.802167],[-8.275476,51.802167],[-8.275476,51.802167],[-8.275425,51.802096],[-8.275411,51.802082],[-8.275393,51.802064],[-8.275355,51.802032],[-8.275303,51.801993],[-8.275256,51.801959],[-8.275188,51.801933],[-8.275113,51.801925],[-8.275,51.801917],[-8.274979,51.801898],[-8.274927,51.801847],[-8.274902,51.80178],[-8.274902,51.80178],[-8.274902,51.801779],[-8.274889,51.801721],[-8.274889,51.801721],[-8.274889,51.801721],[-8.274857,51.801671],[-8.274757,51.80162],[-8.274637,51.801574],[-8.274523,51.801528],[-8.274493,51.801518],[-8.274463,51.801515],[-8.27442,51.801509],[-8.274412,51.801506],[-8.274399,51.801502],[-8.274372,51.801493],[-8.274352,51.801485],[-8.274337,51.80148],[-8.274326,51.801457],[-8.274326,51.801457],[-8.274314,51.80143],[-8.274298,51.801411],[-8.274283,51.801389],[-8.274265,51.801371],[-8.274248,51.801357],[-8.274228,51.801342],[-8.274211,51.801327],[-8.274193,51.801317],[-8.274174,51.801305],[-8.27416,51.801299],[-8.274137,51.801291],[-8.274119,51.801283],[-8.274106,51.801276],[-8.274098,51.801272],[-8.274079,51.801259],[-8.274066,51.801243],[-8.274047,51.801221],[-8.274028,51.801203],[-8.274012,51.801189],[-8.274002,51.801178],[-8.274005,51.801168],[-8.274009,51.801156],[-8.27402,51.801148],[-8.27403,51.801137],[-8.27403,51.801136],[-8.274031,51.801126],[-8.274031,51.801125],[-8.274031,51.801125],[-8.274027,51.801117],[-8.274027,51.801116],[-8.274013,51.801108],[-8.273964,51.801101],[-8.273891,51.801099],[-8.27382,51.801097],[-8.27379,51.801096],[-8.273772,51.801087],[-8.273754,51.801073],[-8.273753,51.801036],[-8.273754,51.800983],[-8.273764,51.800942],[-8.273768,51.800897],[-8.273787,51.80087],[-8.27382,51.800841],[-8.273848,51.800826],[-8.273877,51.80081],[-8.273924,51.800782],[-8.273949,51.800768],[-8.273974,51.800762],[-8.274007,51.800751],[-8.274048,51.800747],[-8.274078,51.800746],[-8.274105,51.800741],[-8.274125,51.800736],[-8.274139,51.800725],[-8.274151,51.800713],[-8.274162,51.8007],[-8.274161,51.8007],[-8.274161,51.8007],[-8.274151,51.80069],[-8.27412,51.800688],[-8.274054,51.800688],[-8.274004,51.800686],[-8.273969,51.800688],[-8.273937,51.800688],[-8.273913,51.800683],[-8.273898,51.800677],[-8.273884,51.800667],[-8.273882,51.800645],[-8.273895,51.800626],[-8.273912,51.800607],[-8.27392,51.800594],[-8.273919,51.80058],[-8.273917,51.800567],[-8.273923,51.800554],[-8.27395,51.800535],[-8.273967,51.800517]]]},"properties":{"transitionId":"roi-settlements-2011__roi-settlements-ungeneralised__759","transitionType":"transfer","transitionReason":"non-mutual-primary-transfer","fromMapId":"roi-settlements-2011","toMapId":"roi-settlements-ungeneralised","fromMapName":"Settlements 2011","toMapName":"Settlements 2015","fromFeatureId":"Settlements 2011-753","toFeatureId":"Settlements 2015-805","fromFeatureName":"18044","toFeatureName":"18045","name":"18044 to 18045","area_m2":393507.01425,"area_km2":0.393507,"fromFeatureAreaM2":393545.6971,"toFeatureAreaM2":2023406.331,"fromFeatureSharePct":99.990171,"toFeatureSharePct":19.44775}}]}